ONEWEB-0570             
1 55149U 23004K   23318.91667824  .00000014  00000+0  00000+0 0  9996
2 55149  87.8510 163.5812 0000895  35.0381 261.3159 13.40822932 45081
ONEWEB-0571             
1 55150U 23004L   23318.91667824  .00000014  00000+0  00000+0 0  9998
2 55150  87.8469 163.5873 0000652 158.3127 151.3236 13.40796722 45093
ONEWEB-0572             
1 55151U 23004M   23318.58178068  .00000181  00000+0  43305-3 0  9993
2 55151  87.9242 193.8254 0001876  83.5288 276.6057 13.17649572 42957
ONEWEB-0573             
1 55152U 23004N   23318.91667824  .00000014  00000+0  00000+0 0  9990
2 55152  87.8599 163.6266 0001444 286.1112 304.4179 13.40374045 45097
ONEWEB-0588             
1 55153U 23004P   23318.91667824  .00000014  00000+0  00000+0 0  9991
2 55153  87.8439 163.5756 0003076 259.4277 275.6933 13.41326757 45097
ONEWEB-0598             
1 55154U 23004Q   23318.46082144  .00000537  00000+0  14795-2 0  9997
2 55154  87.8991 209.0039 0001080 104.4019 255.7229 13.11421169 41944
ONEWEB-0599             
1 55155U 23004R   23318.39196110 -.00000025  00000+0 -97184-4 0  9998
2 55155  87.9243 193.8372 0001507  73.9559 286.1738 13.17644885 42930
ONEWEB-0614             
1 55156U 23004S   23318.45594837  .00000506  00000+0  13912-2 0  9991
2 55156  87.9020 208.9961 0002109  73.5155 286.6205 13.11420757 41884
